{
"type": "FeatureCollection",
"name": "Полигоны Смоленские кладбища",
"crs": { "type": "name", "properties": { "name": "urn:ogc:def:crs:OGC:1.3:CRS84" } },
"features": [
{ "type": "Feature", "properties": { "description": "Смоленское лютеранское кладбище", "fill": "#595959", "fill-opacity": 0.6, "iconCaption": null, "marker-color": null, "stroke": "#595959", "stroke-width": "5", "stroke-opacity": 0.9 }, "geometry": { "type": "Polygon", "coordinates": [ [ [ 30.251030099487245, 59.951620050537962 ], [ 30.250987184143007, 59.950952757655358 ], [ 30.250043046569751, 59.950414608422385 ], [ 30.253562104797307, 59.949941029845391 ], [ 30.255107057189875, 59.947680674927796 ], [ 30.258154046630803, 59.948003592250799 ], [ 30.257209909057547, 59.949166068447617 ], [ 30.256008279418872, 59.950586817139765 ], [ 30.254763734435983, 59.951770727708364 ], [ 30.251030099487245, 59.951620050537962 ] ] ] } },
{ "type": "Feature", "properties": { "description": "Смоленское православное кладбище", "fill": "#595959", "fill-opacity": 0.6, "iconCaption": null, "marker-color": null, "stroke": "#595959", "stroke-width": "5", "stroke-opacity": 0.9 }, "geometry": { "type": "Polygon", "coordinates": [ [ [ 30.238455903625432, 59.943913072988245 ], [ 30.244163644409106, 59.939326783555678 ], [ 30.24540818939202, 59.939671315670225 ], [ 30.246309411621038, 59.939089915643457 ], [ 30.256737840270944, 59.941867623468141 ], [ 30.251759660339292, 59.945872279573756 ], [ 30.252660882568286, 59.946066040946093 ], [ 30.253476274108834, 59.946948717272384 ], [ 30.252918374633733, 59.947228585327217 ], [ 30.25206006774895, 59.947551507059956 ], [ 30.249785554504331, 59.94729316992624 ], [ 30.248798501586837, 59.947034830772537 ], [ 30.244292390441842, 59.94563545858454 ], [ 30.243262422180109, 59.945527812115145 ], [ 30.238455903625432, 59.943913072988245 ] ] ] } },
{ "type": "Feature", "properties": { "description": "Кладбище Остров Декабристов", "fill": "#b3b3b3", "fill-opacity": 0.6, "iconCaption": null, "marker-color": null, "stroke": "#b3b3b3", "stroke-width": "5", "stroke-opacity": 0.9 }, "geometry": { "type": "Polygon", "coordinates": [ [ [ 30.242078391595566, 59.946837992021059 ], [ 30.242702835197601, 59.945845111971806 ], [ 30.242938869590915, 59.945807435986488 ], [ 30.24404393970504, 59.945968904192576 ], [ 30.249813882394491, 59.947650681956944 ], [ 30.248998490853971, 59.948140439091119 ], [ 30.248783914132762, 59.948188876215369 ], [ 30.248290387674029, 59.94857098881662 ], [ 30.246305553003012, 59.948005891151176 ], [ 30.246037332101515, 59.94783905094468 ], [ 30.244492379708973, 59.947155535504848 ], [ 30.242797223611561, 59.94714477136894 ], [ 30.242539731546142, 59.947020983553848 ], [ 30.242078391595566, 59.946837992021059 ] ] ] } },
{ "type": "Feature", "properties": { "description": "Армяно-григорианское кладбище", "fill": "#b3b3b3", "fill-opacity": 0.6, "iconCaption": null, "marker-color": null, "stroke": "#b3b3b3", "stroke-width": "5", "stroke-opacity": 0.9 }, "geometry": { "type": "Polygon", "coordinates": [ [ [ 30.25304543315896, 59.948941055818047 ], [ 30.252948873634331, 59.94846476516274 ], [ 30.253174179191593, 59.948459383308489 ], [ 30.25314199268341, 59.948295236332932 ], [ 30.253367298240697, 59.948284472577342 ], [ 30.253437035675091, 59.94779740855973 ], [ 30.254912250633318, 59.947757043834144 ], [ 30.254086130256717, 59.948970655573959 ], [ 30.25304543315896, 59.948941055818047 ] ] ] } },
{ "type": "Feature", "properties": { "description": "Территория прилегающего района", "fill": "#82cdff", "fill-opacity": 0.1, "iconCaption": null, "marker-color": null, "stroke": "#177bc9", "stroke-width": "5", "stroke-opacity": 0.9 }, "geometry": { "type": "Polygon", "coordinates": [ [ [ 30.235794805878982, 59.955412007632518 ], [ 30.232361578339876, 59.949686423154112 ], [ 30.229958319062547, 59.945940579070246 ], [ 30.233477377290079, 59.937413971315799 ], [ 30.23768308102547, 59.937887729474618 ], [ 30.23802640377939, 59.936208010845483 ], [ 30.239142202729568, 59.933795957872071 ], [ 30.2443349593824, 59.934140547634222 ], [ 30.246738218659704, 59.934792027844566 ], [ 30.247660898560827, 59.933890181974789 ], [ 30.249184393281293, 59.93449590208018 ], [ 30.258883261079148, 59.937306298066403 ], [ 30.27107121884281, 59.940902394959849 ], [ 30.266779684418992, 59.944691870003687 ], [ 30.271757864350619, 59.946069753177703 ], [ 30.268582128877032, 59.948653129292857 ], [ 30.265148901337977, 59.952054266416326 ], [ 30.251759313935615, 59.956186822516749 ], [ 30.247296118134855, 59.95601464300222 ], [ 30.24283292233407, 59.955067639627089 ], [ 30.235794805878982, 59.955412007632518 ] ] ] } }
]
}
