{
"type": "FeatureCollection",
"name": "Полигоны Волковские кладбища и жилые районы",
"crs": { "type": "name", "properties": { "name": "urn:ogc:def:crs:OGC:1.3:CRS84" } },
"features": [
{ "type": "Feature", "properties": { "description": "Исследуемая территория", "fill": "#56db40", "fill-opacity": 0.3, "marker-color": null, "stroke": "#1bad03", "stroke-width": "2", "stroke-opacity": 0.5 }, "geometry": { "type": "Polygon", "coordinates": [ [ [ 30.345855032571468, 59.890875912897016 ], [ 30.347358483846136, 59.885032161923924 ], [ 30.351460703305616, 59.884599141428374 ], [ 30.356036702762022, 59.883909698477808 ], [ 30.357959922063632, 59.884058374642429 ], [ 30.36008698925141, 59.884444311306275 ], [ 30.360611323394316, 59.884550615451445 ], [ 30.361875947224938, 59.884824078441902 ], [ 30.363203565249336, 59.885079821391322 ], [ 30.365067625076783, 59.885464973363959 ], [ 30.364721544675927, 59.885893257235892 ], [ 30.365909848515095, 59.888536328031677 ], [ 30.382307672439595, 59.894382246763257 ], [ 30.385165487894884, 59.900578709687977 ], [ 30.390658651956308, 59.90363989091464 ], [ 30.379329001078169, 59.90596792370755 ], [ 30.37477997458863, 59.9142009479922 ], [ 30.367355620035159, 59.913705300289713 ], [ 30.363364493020722, 59.913543674413624 ], [ 30.359545027383838, 59.913726850334818 ], [ 30.350318228372128, 59.91497672948384 ], [ 30.345597540506429, 59.907562962762199 ], [ 30.342507635721393, 59.908220355117948 ], [ 30.339321171411473, 59.908357759237646 ], [ 30.339010035165739, 59.906921723188624 ], [ 30.339117323525734, 59.905860148036084 ], [ 30.340361868508595, 59.902217123604245 ], [ 30.345855032571468, 59.890875912897016 ] ] ] } },
{ "type": "Feature", "properties": { "description": "Кладбища", "fill": "#595959", "fill-opacity": 0.6, "marker-color": null, "stroke": "#595959", "stroke-width": "2", "stroke-opacity": 0.9 }, "geometry": { "type": "Polygon", "coordinates": [ [ [ 30.359061474258816, 59.90585904683703 ], [ 30.3567011303257, 59.903789685632219 ], [ 30.354212040359872, 59.901590847571974 ], [ 30.353825802261746, 59.901353709250841 ], [ 30.353224987442406, 59.901267476712832 ], [ 30.35026382868995, 59.898356996811678 ], [ 30.354684109146501, 59.897171172372452 ], [ 30.354984516556183, 59.897343658567159 ], [ 30.355413669998551, 59.897667067759976 ], [ 30.356014484817887, 59.897904232493367 ], [ 30.356529468948754, 59.89827075646658 ], [ 30.357602352554718, 59.898529476827903 ], [ 30.358675236160661, 59.898831314693787 ], [ 30.359318966324235, 59.89924094739537 ], [ 30.35970520442239, 59.899564338052848 ], [ 30.360048527176282, 59.900017079665588 ], [ 30.360048527176282, 59.900642284093564 ], [ 30.361035580093777, 59.900836310652906 ], [ 30.362237209732452, 59.900728518260372 ], [ 30.363052601272972, 59.90071773899281 ], [ 30.363674873764417, 59.901111179656056 ], [ 30.363953823501969, 59.901806426389584 ], [ 30.371292347366712, 59.900685401205052 ], [ 30.371506924087917, 59.901051894384935 ], [ 30.372751469070831, 59.900836310652906 ], [ 30.37517618602029, 59.903633400485575 ], [ 30.372569078857808, 59.904034890123263 ], [ 30.369961971695325, 59.904522599190571 ], [ 30.371163601334001, 59.90598837761609 ], [ 30.369017834122094, 59.906742797087112 ], [ 30.367000812942894, 59.906893678917477 ], [ 30.366314167435085, 59.905061495864125 ], [ 30.368374103958519, 59.904565711247379 ], [ 30.367816204483418, 59.903962137341459 ], [ 30.364468807632832, 59.904220813220427 ], [ 30.364297146255886, 59.904630379227292 ], [ 30.359061474258816, 59.90585904683703 ] ] ] } },
{ "type": "Feature", "properties": { "description": "Жилая застройка", "fill": "#f371d1", "fill-opacity": 0.6, "marker-color": null, "stroke": "#f371d1", "stroke-width": "3", "stroke-opacity": 0.9 }, "geometry": { "type": "Polygon", "coordinates": [ [ [ 30.357195489593185, 59.896567314112751 ], [ 30.359545042445625, 59.896281454829669 ], [ 30.359652330806227, 59.897402629162706 ], [ 30.361841013362373, 59.898793263798197 ], [ 30.363214304377994, 59.898448305616 ], [ 30.363858034541568, 59.899224456470918 ], [ 30.368857672145328, 59.897488871769418 ], [ 30.372183611323806, 59.90031319297362 ], [ 30.365156285949347, 59.901445181588556 ], [ 30.363998516444529, 59.901000068797572 ], [ 30.36452983002685, 59.900663772992154 ], [ 30.365318635674619, 59.900877217980621 ], [ 30.367067908347156, 59.899967472239993 ], [ 30.365160065107855, 59.899637745517644 ], [ 30.364369910397919, 59.899236997042223 ], [ 30.363079237414674, 59.899647032772187 ], [ 30.362088971841111, 59.900197196316498 ], [ 30.360306852050456, 59.899424053001326 ], [ 30.357796304412524, 59.898087345493316 ], [ 30.357195489593185, 59.896567314112751 ] ] ] } },
{ "type": "Feature", "properties": { "description": "Жилая застройка", "fill": "#f371d1", "fill-opacity": 0.6, "marker-color": null, "stroke": "#f371d1", "stroke-width": "3", "stroke-opacity": 0.9 }, "geometry": { "type": "Polygon", "coordinates": [ [ [ 30.354938531228385, 59.889060616045874 ], [ 30.356053369980451, 59.884108660788186 ], [ 30.357812899094228, 59.884194938025495 ], [ 30.365045094796503, 59.885555937310023 ], [ 30.361332917519896, 59.889340974323005 ], [ 30.35755636722692, 59.888629290984838 ], [ 30.356891179391241, 59.889330191356237 ], [ 30.354938531228385, 59.889060616045874 ] ] ] } },
{ "type": "Feature", "properties": { "description": "Жилая застройка", "fill": "#f371d1", "fill-opacity": 0.6, "marker-color": null, "stroke": "#f371d1", "stroke-width": "3", "stroke-opacity": 0.9 }, "geometry": { "type": "Polygon", "coordinates": [ [ [ 30.346860046639346, 59.906423864729341 ], [ 30.347498412384841, 59.907047600975922 ], [ 30.348276252999128, 59.906852263669279 ], [ 30.348013396515682, 59.906580136662932 ], [ 30.348410363449915, 59.906458891265203 ], [ 30.349185521855137, 59.906267592022978 ], [ 30.349531526818094, 59.906208315973167 ], [ 30.349790359988084, 59.906278369472481 ], [ 30.350403244748019, 59.906097846724251 ], [ 30.351783241286189, 59.905785297505183 ], [ 30.351961608185679, 59.905612855308789 ], [ 30.353587026848746, 59.90519791254907 ], [ 30.358747596993396, 59.912283558274183 ], [ 30.355915184273652, 59.912671473770864 ], [ 30.356687660469962, 59.913986042463392 ], [ 30.350636596932347, 59.914934223510855 ], [ 30.345807716778104, 59.907526859627538 ], [ 30.345143432869829, 59.906830709182231 ], [ 30.346860046639346, 59.906423864729341 ] ] ] } },
{ "type": "Feature", "properties": { "description": "GloraX Первый квартал (2019)", "fill": "#f371d1", "fill-opacity": 0.6, "marker-color": null, "stroke": "#b51eff", "stroke-width": "3", "stroke-opacity": 0.9 }, "geometry": { "type": "Polygon", "coordinates": [ [ [ 30.339380950518244, 59.906938631593853 ], [ 30.339659900255846, 59.905138784515785 ], [ 30.342427939959197, 59.904890893714757 ], [ 30.343168229647272, 59.905656115840607 ], [ 30.340770334787972, 59.906275825032289 ], [ 30.341172666140206, 59.906863190867178 ], [ 30.339938849993395, 59.907111066903845 ], [ 30.339380950518244, 59.906938631593853 ] ] ] } },
{ "type": "Feature", "properties": { "description": "GloraX Второй квартал (2020)", "fill": "#f371d1", "fill-opacity": 0.6, "marker-color": null, "stroke": "#b51eff", "stroke-width": "3", "stroke-opacity": 0.9 }, "geometry": { "type": "Polygon", "coordinates": [ [ [ 30.344337672777534, 59.906071052457406 ], [ 30.347148627825046, 59.905370506441734 ], [ 30.347148627825046, 59.905359728685838 ], [ 30.348339528627545, 59.905025616774687 ], [ 30.348782093115076, 59.904897629457025 ], [ 30.34895643670114, 59.905028311229906 ], [ 30.348656029291661, 59.905327395397087 ], [ 30.34832584091783, 59.905635127271324 ], [ 30.347572416849438, 59.906221937323451 ], [ 30.348183960504752, 59.906844330217965 ], [ 30.347840637750934, 59.906925159616399 ], [ 30.347518772669225, 59.9070059888084 ], [ 30.346880406923653, 59.906378210246409 ], [ 30.345077962465613, 59.906806609795474 ], [ 30.344337672777534, 59.906071052457406 ] ] ] } },
{ "type": "Feature", "properties": { "description": "ПИК Аэронавт (2026) и Витебский парк (2028)", "fill": "#b51eff", "fill-opacity": 0.6, "marker-color": null, "stroke": "#b51eff", "stroke-width": "3", "stroke-opacity": 0.9 }, "geometry": { "type": "Polygon", "coordinates": [ [ [ 30.343028754778508, 59.904427440597722 ], [ 30.341011733599313, 59.90240110475137 ], [ 30.34174129445136, 59.900374644840447 ], [ 30.343500823565112, 59.897593450009609 ], [ 30.346333236284856, 59.897744373553984 ], [ 30.347770900316796, 59.900051262090351 ], [ 30.347556323595587, 59.901913364418675 ], [ 30.345517844744286, 59.901921448573155 ], [ 30.345088691301893, 59.903899311807521 ], [ 30.343028754778508, 59.904427440597722 ] ] ] } },
{ "type": "Feature", "properties": { "description": "ЦДС Волковский (2021)", "fill": "#f371d1", "fill-opacity": 0.6, "marker-color": null, "stroke": "#b51eff", "stroke-width": "3", "stroke-opacity": 0.9 }, "geometry": { "type": "Polygon", "coordinates": [ [ [ 30.36228384358937, 59.900249694465877 ], [ 30.363120692802024, 59.899743058189983 ], [ 30.3643223224407, 59.899311872272619 ], [ 30.365116256309115, 59.89969993985099 ], [ 30.363742965293493, 59.900626971761596 ], [ 30.36228384358937, 59.900249694465877 ] ] ] } },
{ "type": "Feature", "properties": { "description": "Эталон КРТ Новодевичий квартал (проектирование)", "fill": "#82cdff", "fill-opacity": 0.6, "marker-color": null, "stroke": "#b51eff", "stroke-width": "3", "stroke-opacity": 0.9 }, "geometry": { "type": "Polygon", "coordinates": [ [ [ 30.327175187467919, 59.903176286245419 ], [ 30.327275241255514, 59.902831729380075 ], [ 30.323434317946173, 59.900492696635986 ], [ 30.328112090468142, 59.897851654547225 ], [ 30.331595467924469, 59.899134117055631 ], [ 30.336230325102203, 59.903143950850598 ], [ 30.335093068479893, 59.904006217234162 ], [ 30.327175187467919, 59.903176286245419 ] ] ] } },
{ "type": "Feature", "properties": { "description": "Setl Group Автограф в центре (2022)", "fill": "#f371d1", "fill-opacity": 0.6, "marker-color": null, "stroke": "#b51eff", "stroke-width": "3", "stroke-opacity": 0.9 }, "geometry": { "type": "Polygon", "coordinates": [ [ [ 30.343018339780993, 59.904845638273649 ], [ 30.346113608984183, 59.904057493793736 ], [ 30.349471734670821, 59.90324373175136 ], [ 30.349117683080873, 59.904736511707533 ], [ 30.347229407934385, 59.905259238229824 ], [ 30.346582995561747, 59.905450880078803 ], [ 30.346473024992182, 59.905351522831211 ], [ 30.345802472738448, 59.905443807193272 ], [ 30.345255302099424, 59.9048954860842 ], [ 30.345679761675985, 59.904791580223659 ], [ 30.345396118072657, 59.904547560181292 ], [ 30.343283878473351, 59.905067258404991 ], [ 30.343018339780993, 59.904845638273649 ] ] ] } },
{ "type": "Feature", "properties": { "description": "RBI Куинджи (2026)", "fill": "#b51eff", "fill-opacity": 0.6, "marker-color": null, "stroke": "#b51eff", "stroke-width": "3", "stroke-opacity": 0.9 }, "geometry": { "type": "Polygon", "coordinates": [ [ [ 30.345276759771302, 59.903863485936732 ], [ 30.345695184377668, 59.902009577453626 ], [ 30.347433255819261, 59.902004188024392 ], [ 30.347175763753867, 59.903389240169538 ], [ 30.345276759771302, 59.903863485936732 ] ] ] } },
{ "type": "Feature", "properties": { "description": "ПИК Салова1", "fill": "#82cdff", "fill-opacity": 0.6, "marker-color": null, "stroke": "#b51eff", "stroke-width": "3", "stroke-opacity": 0.9 }, "geometry": { "type": "Polygon", "coordinates": [ [ [ 30.373214648870412, 59.896953915574457 ], [ 30.377302335409148, 59.896404106231742 ], [ 30.380821393636701, 59.895541641794111 ], [ 30.381980107931117, 59.894894778720982 ], [ 30.384297536519995, 59.895972876821453 ], [ 30.385413335470197, 59.895261336014165 ], [ 30.387644933370527, 59.896037561582112 ], [ 30.379319356588343, 59.901880231107477 ], [ 30.378804372457505, 59.900565181411331 ], [ 30.378117726949693, 59.899573470035648 ], [ 30.37618653645897, 59.898215208417831 ], [ 30.374861525205556, 59.897595348273001 ], [ 30.373214648870412, 59.896953915574457 ] ] ] } },
{ "type": "Feature", "properties": { "description": "ПИК Салова2", "fill": "#82cdff", "fill-opacity": 0.6, "marker-color": null, "stroke": "#b51eff", "stroke-width": "3", "stroke-opacity": 0.9 }, "geometry": { "type": "Polygon", "coordinates": [ [ [ 30.374240790742039, 59.901845199635602 ], [ 30.37363018051019, 59.901102795044963 ], [ 30.372804993557232, 59.900425050017319 ], [ 30.36964194646259, 59.897536056673268 ], [ 30.371573136953291, 59.897239597189461 ], [ 30.372624562887175, 59.897223426609543 ], [ 30.374512838033663, 59.898042726737224 ], [ 30.375800298360815, 59.898689528304565 ], [ 30.376744435934043, 59.899551910735788 ], [ 30.377774404195776, 59.90045738810889 ], [ 30.377946065572722, 59.90129816634844 ], [ 30.377988980916957, 59.901923346579416 ], [ 30.377903150228484, 59.902526957666758 ], [ 30.377602742818826, 59.903259899188114 ], [ 30.377087758687964, 59.903691033677561 ], [ 30.376744435934043, 59.90388504236553 ], [ 30.376057790426234, 59.90377725990151 ], [ 30.375671552328054, 59.903615585538333 ], [ 30.374240790742039, 59.901845199635602 ] ] ] } },
{ "type": "Feature", "properties": { "description": "Ново-волковское кладбище", "fill": "#b3b3b3", "fill-opacity": 0.6, "marker-color": null, "stroke": "#b3b3b3", "stroke-width": "3", "stroke-opacity": 0.9 }, "geometry": { "type": "Polygon", "coordinates": [ [ [ 30.364290566866963, 59.876706255645168 ], [ 30.36862501663504, 59.87782809285369 ], [ 30.362917275851341, 59.881991502681551 ], [ 30.360900254672146, 59.884385765627449 ], [ 30.356651635592517, 59.883458278892292 ], [ 30.355964990084729, 59.88401908793837 ], [ 30.355235429232682, 59.88680142312186 ], [ 30.353261323397721, 59.886499475571419 ], [ 30.353304238741956, 59.88598184479455 ], [ 30.353046746676537, 59.885744594651378 ], [ 30.353432984774692, 59.885226952076238 ], [ 30.354591699069108, 59.884428903922284 ], [ 30.355149598544209, 59.883911240784052 ], [ 30.35489210647879, 59.883026880873075 ], [ 30.355063767855736, 59.88225035026349 ], [ 30.354935021823024, 59.881495372495763 ], [ 30.354248376315212, 59.881301232574216 ], [ 30.353690476840111, 59.881258090214921 ], [ 30.353003831332302, 59.881214947799421 ], [ 30.352360101168724, 59.880805092049926 ], [ 30.35205969375907, 59.880308944094836 ], [ 30.352531762545674, 59.8800069373535 ], [ 30.356308312838646, 59.880308944094836 ], [ 30.356823296969512, 59.879920649207435 ], [ 30.358153672640899, 59.880201084860417 ], [ 30.364290566866963, 59.876706255645168 ] ] ] } },
{ "type": "Feature", "properties": { "description": "Новодевичье кладбище", "fill": "#b3b3b3", "fill-opacity": 0.6, "marker-color": null, "stroke": "#b3b3b3", "stroke-width": "3", "stroke-opacity": 0.9 }, "geometry": { "type": "Polygon", "coordinates": [ [ [ 30.322713465947075, 59.899440574128747 ], [ 30.322713465947075, 59.897489395228021 ], [ 30.323271365422176, 59.897457054277318 ], [ 30.323271365422176, 59.896098705818233 ], [ 30.324151129979064, 59.896012459589919 ], [ 30.324301333683906, 59.895225452377339 ], [ 30.325245471257137, 59.895592006009409 ], [ 30.326318354863105, 59.895839966459263 ], [ 30.328850360173167, 59.896896472778757 ], [ 30.329494090336741, 59.897575637608703 ], [ 30.329687209385817, 59.897888264355288 ], [ 30.329300971287662, 59.898136207606711 ], [ 30.328034968632643, 59.89771578098911 ], [ 30.324966521519585, 59.899516031776372 ], [ 30.322713465947075, 59.899440574128747 ] ] ] } },
{ "type": "Feature", "properties": { "description": "TASHIR (снос ТЦ РИО)", "fill": "#82cdff", "fill-opacity": 0.6, "marker-color": null, "stroke": "#b51eff", "stroke-width": "3", "stroke-opacity": 0.9 }, "geometry": { "type": "Polygon", "coordinates": [ [ [ 30.357786887319101, 59.87951077696728 ], [ 30.353581183583785, 59.878734163930034 ], [ 30.357014411122844, 59.874333012825979 ], [ 30.363880866200983, 59.875756978629653 ], [ 30.357786887319101, 59.87951077696728 ] ] ] } }
]
}
