{
"type": "FeatureCollection",
"name": "Продуктовые магазины Смоленские кладбища",
"crs": { "type": "name", "properties": { "name": "urn:ogc:def:crs:OGC:1.3:CRS84" } },
"features": [
{ "type": "Feature", "properties": { "description": null, "fill": null, "fill-opacity": null, "iconCaption": null, "marker-color": "#595959", "stroke": null, "stroke-width": null, "stroke-opacity": null }, "geometry": { "type": "Point", "coordinates": [ 30.255064141845207, 59.949941029165743 ] } },
{ "type": "Feature", "properties": { "description": null, "fill": null, "fill-opacity": null, "iconCaption": null, "marker-color": "#b3b3b3", "stroke": null, "stroke-width": null, "stroke-opacity": null }, "geometry": { "type": "Point", "coordinates": [ 30.245900028343346, 59.947205387450367 ] } },
{ "type": "Feature", "properties": { "description": null, "fill": null, "fill-opacity": null, "iconCaption": null, "marker-color": "#b3b3b3", "stroke": null, "stroke-width": null, "stroke-opacity": null }, "geometry": { "type": "Point", "coordinates": [ 30.209209026489191, 59.933894238962338 ] } },
{ "type": "Feature", "properties": { "description": null, "fill": null, "fill-opacity": null, "iconCaption": null, "marker-color": "#595959", "stroke": null, "stroke-width": null, "stroke-opacity": null }, "geometry": { "type": "Point", "coordinates": [ 30.209209026488786, 59.935918645986128 ] } },
{ "type": "Feature", "properties": { "description": null, "fill": null, "fill-opacity": null, "iconCaption": null, "marker-color": "#1bad03", "stroke": null, "stroke-width": null, "stroke-opacity": null }, "geometry": { "type": "Point", "coordinates": [ 30.209053904540745, 59.931060786045649 ] } },
{ "type": "Feature", "properties": { "description": "Продуктовый гипермаркет; </br>\nУральская ул., 29, корп. 1, Санкт-Петербург", "fill": null, "fill-opacity": null, "iconCaption": null, "marker-color": "#1bad03", "stroke": null, "stroke-width": null, "stroke-opacity": null }, "geometry": { "type": "Point", "coordinates": [ 30.245223, 59.956193 ] } },
{ "type": "Feature", "properties": { "description": "Магазин продуктов; </br>\nпросп. КИМа, 4А, Санкт-Петербург", "fill": null, "fill-opacity": null, "iconCaption": null, "marker-color": "#1bad03", "stroke": null, "stroke-width": null, "stroke-opacity": null }, "geometry": { "type": "Point", "coordinates": [ 30.244747, 59.949528 ] } },
{ "type": "Feature", "properties": { "description": "Супермаркет; </br>\nНаличная ул., 41/14, Санкт-Петербург", "fill": null, "fill-opacity": null, "iconCaption": null, "marker-color": "#1bad03", "stroke": null, "stroke-width": null, "stroke-opacity": null }, "geometry": { "type": "Point", "coordinates": [ 30.232112, 59.942437 ] } },
{ "type": "Feature", "properties": { "description": "Супермаркет; </br>\nЖелезноводская ул., 68Б, Санкт-Петербург", "fill": null, "fill-opacity": null, "iconCaption": null, "marker-color": "#1bad03", "stroke": null, "stroke-width": null, "stroke-opacity": null }, "geometry": { "type": "Point", "coordinates": [ 30.233702, 59.949127 ] } },
{ "type": "Feature", "properties": { "description": "Супермаркет; </br>\nпросп. КИМа, 6, Санкт-Петербург", "fill": null, "fill-opacity": null, "iconCaption": null, "marker-color": "#1bad03", "stroke": null, "stroke-width": null, "stroke-opacity": null }, "geometry": { "type": "Point", "coordinates": [ 30.246033, 59.950862 ] } },
{ "type": "Feature", "properties": { "description": "Супермаркет; </br>\nМалый просп. Васильевского острова, 39, Санкт-Петербург", "fill": null, "fill-opacity": null, "iconCaption": null, "marker-color": "#1bad03", "stroke": null, "stroke-width": null, "stroke-opacity": null }, "geometry": { "type": "Point", "coordinates": [ 30.266197, 59.944789 ] } },
{ "type": "Feature", "properties": { "description": "Магазин кулинарии; </br>\nМалый просп. Васильевского острова, 22, Санкт-Петербург", "fill": null, "fill-opacity": null, "iconCaption": null, "marker-color": "#1bad03", "stroke": null, "stroke-width": null, "stroke-opacity": null }, "geometry": { "type": "Point", "coordinates": [ 30.270579, 59.945772 ] } },
{ "type": "Feature", "properties": { "description": "Супермаркет; </br>\nУральская ул., 4, Санкт-Петербург", "fill": null, "fill-opacity": null, "iconCaption": null, "marker-color": "#1bad03", "stroke": null, "stroke-width": null, "stroke-opacity": null }, "geometry": { "type": "Point", "coordinates": [ 30.266439, 59.950148 ] } },
{ "type": "Feature", "properties": { "description": "Магазин продуктов; </br>\n15-я линия Васильевского острова, 68, Санкт-Петербург", "fill": null, "fill-opacity": null, "iconCaption": null, "marker-color": "#1bad03", "stroke": null, "stroke-width": null, "stroke-opacity": null }, "geometry": { "type": "Point", "coordinates": [ 30.263619, 59.944068 ] } },
{ "type": "Feature", "properties": { "description": "Продуктовый гипермаркет; </br>\n21-я линия Васильевского острова, 16, корп. 8, Санкт-Петербург", "fill": null, "fill-opacity": null, "iconCaption": null, "marker-color": "#1bad03", "stroke": null, "stroke-width": null, "stroke-opacity": null }, "geometry": { "type": "Point", "coordinates": [ 30.258794, 59.937253 ] } },
{ "type": "Feature", "properties": { "description": "Супермаркет; </br>\nНаличная ул., 44к1, Санкт-Петербург", "fill": null, "fill-opacity": null, "iconCaption": null, "marker-color": "#1bad03", "stroke": null, "stroke-width": null, "stroke-opacity": null }, "geometry": { "type": "Point", "coordinates": [ 30.232846, 59.952069 ] } },
{ "type": "Feature", "properties": { "description": "Супермаркет; </br>\nНаличная ул., 32, корп. 1, Санкт-Петербург", "fill": null, "fill-opacity": null, "iconCaption": null, "marker-color": "#1bad03", "stroke": null, "stroke-width": null, "stroke-opacity": null }, "geometry": { "type": "Point", "coordinates": [ 30.227462, 59.944169 ] } },
{ "type": "Feature", "properties": { "description": "Супермаркет; </br>\nНовосмоленская наб., 1Б, Санкт-Петербург", "fill": null, "fill-opacity": null, "iconCaption": null, "marker-color": "#1bad03", "stroke": null, "stroke-width": null, "stroke-opacity": null }, "geometry": { "type": "Point", "coordinates": [ 30.229177, 59.949218 ] } },
{ "type": "Feature", "properties": { "description": "Супермаркет; </br>\nул. Кораблестроителей, 31, корп. 1, Санкт-Петербург", "fill": null, "fill-opacity": null, "iconCaption": null, "marker-color": "#1bad03", "stroke": null, "stroke-width": null, "stroke-opacity": null }, "geometry": { "type": "Point", "coordinates": [ 30.22041, 59.95359 ] } },
{ "type": "Feature", "properties": { "description": "Супермаркет; </br>\nул. Кораблестроителей, 32, корп. 1, Санкт-Петербург", "fill": null, "fill-opacity": null, "iconCaption": null, "marker-color": "#1bad03", "stroke": null, "stroke-width": null, "stroke-opacity": null }, "geometry": { "type": "Point", "coordinates": [ 30.216793, 59.953466 ] } },
{ "type": "Feature", "properties": { "description": "Магазин продуктов; </br>\nул. Кораблестроителей, 32, корп. 2Б, Санкт-Петербург", "fill": null, "fill-opacity": null, "iconCaption": null, "marker-color": "#1bad03", "stroke": null, "stroke-width": null, "stroke-opacity": null }, "geometry": { "type": "Point", "coordinates": [ 30.214793, 59.954174 ] } },
{ "type": "Feature", "properties": { "description": "Супермаркет; </br>\nул. Кораблестроителей, 33, Санкт-Петербург", "fill": null, "fill-opacity": null, "iconCaption": null, "marker-color": "#1bad03", "stroke": null, "stroke-width": null, "stroke-opacity": null }, "geometry": { "type": "Point", "coordinates": [ 30.222924, 59.95325 ] } },
{ "type": "Feature", "properties": { "description": "Магазин продуктов; </br>\nул. Кораблестроителей, 36/1, Санкт-Петербург", "fill": null, "fill-opacity": null, "iconCaption": null, "marker-color": "#1bad03", "stroke": null, "stroke-width": null, "stroke-opacity": null }, "geometry": { "type": "Point", "coordinates": [ 30.217139, 59.955056 ] } },
{ "type": "Feature", "properties": { "description": "Супермаркет; </br>\nул. Кораблестроителей, 32, корп. 3, Санкт-Петербург", "fill": null, "fill-opacity": null, "iconCaption": null, "marker-color": "#1bad03", "stroke": null, "stroke-width": null, "stroke-opacity": null }, "geometry": { "type": "Point", "coordinates": [ 30.216643, 59.951911 ] } },
{ "type": "Feature", "properties": { "description": "Супермаркет; </br>\nул. Нахимова, 5, корп. 1, Санкт-Петербург", "fill": null, "fill-opacity": null, "iconCaption": null, "marker-color": "#1bad03", "stroke": null, "stroke-width": null, "stroke-opacity": null }, "geometry": { "type": "Point", "coordinates": [ 30.225444, 59.942178 ] } },
{ "type": "Feature", "properties": { "description": "Супермаркет; </br>\nул. Нахимова, 8, Санкт-Петербург", "fill": null, "fill-opacity": null, "iconCaption": null, "marker-color": "#1bad03", "stroke": null, "stroke-width": null, "stroke-opacity": null }, "geometry": { "type": "Point", "coordinates": [ 30.234636, 59.943304 ] } },
{ "type": "Feature", "properties": { "description": "Магазин продуктов; </br>\nМалый просп. Васильевского острова, 75, Санкт-Петербург", "fill": null, "fill-opacity": null, "iconCaption": null, "marker-color": "#1bad03", "stroke": null, "stroke-width": null, "stroke-opacity": null }, "geometry": { "type": "Point", "coordinates": [ 30.236013, 59.93791 ] } },
{ "type": "Feature", "properties": { "description": "Супермаркет; </br>\nМалый просп. Васильевского острова, 88, Санкт-Петербург", "fill": null, "fill-opacity": null, "iconCaption": null, "marker-color": "#1bad03", "stroke": null, "stroke-width": null, "stroke-opacity": null }, "geometry": { "type": "Point", "coordinates": [ 30.23063, 59.93825 ] } },
{ "type": "Feature", "properties": { "description": "Супермаркет; </br>\nБольшой просп. Васильевского острова, 68, Санкт-Петербург", "fill": null, "fill-opacity": null, "iconCaption": null, "marker-color": "#1bad03", "stroke": null, "stroke-width": null, "stroke-opacity": null }, "geometry": { "type": "Point", "coordinates": [ 30.260266, 59.932013 ] } },
{ "type": "Feature", "properties": { "description": "Магазин продуктов; </br>\nГаванская ул., 42, Санкт-Петербург", "fill": null, "fill-opacity": null, "iconCaption": null, "marker-color": "#1bad03", "stroke": null, "stroke-width": null, "stroke-opacity": null }, "geometry": { "type": "Point", "coordinates": [ 30.237125, 59.937645 ] } },
{ "type": "Feature", "properties": { "description": "Супермаркет; </br>\nБольшой просп. Васильевского острова, 62, Санкт-Петербург", "fill": null, "fill-opacity": null, "iconCaption": null, "marker-color": "#1bad03", "stroke": null, "stroke-width": null, "stroke-opacity": null }, "geometry": { "type": "Point", "coordinates": [ 30.264319, 59.933303 ] } },
{ "type": "Feature", "properties": { "description": "Супермаркет; </br>\nул. Шевченко, 17, Санкт-Петербург", "fill": null, "fill-opacity": null, "iconCaption": null, "marker-color": "#1bad03", "stroke": null, "stroke-width": null, "stroke-opacity": null }, "geometry": { "type": "Point", "coordinates": [ 30.246229, 59.935001 ] } },
{ "type": "Feature", "properties": { "description": "Супермаркет; </br>\nГаванская ул., 6, Санкт-Петербург", "fill": null, "fill-opacity": null, "iconCaption": null, "marker-color": "#1bad03", "stroke": null, "stroke-width": null, "stroke-opacity": null }, "geometry": { "type": "Point", "coordinates": [ 30.2412, 59.929342 ] } },
{ "type": "Feature", "properties": { "description": "Супермаркет; </br>\nБольшой просп. Васильевского острова, 91, Санкт-Петербург", "fill": null, "fill-opacity": null, "iconCaption": null, "marker-color": "#1bad03", "stroke": null, "stroke-width": null, "stroke-opacity": null }, "geometry": { "type": "Point", "coordinates": [ 30.246715, 59.928671 ] } },
{ "type": "Feature", "properties": { "description": "Супермаркет; </br>\nМалый просп. Васильевского острова, 67, корп. 1, Санкт-Петербург", "fill": null, "fill-opacity": null, "iconCaption": null, "marker-color": "#1bad03", "stroke": null, "stroke-width": null, "stroke-opacity": null }, "geometry": { "type": "Point", "coordinates": [ 30.240457, 59.938315 ] } },
{ "type": "Feature", "properties": { "description": "Супермаркет; </br>\nБольшой просп. Васильевского острова, 68, Санкт-Петербург", "fill": null, "fill-opacity": null, "iconCaption": null, "marker-color": "#1bad03", "stroke": null, "stroke-width": null, "stroke-opacity": null }, "geometry": { "type": "Point", "coordinates": [ 30.260266, 59.932013 ] } },
{ "type": "Feature", "properties": { "description": "Супермаркет; </br>\nул. Беринга, 23, корп. 1, Санкт-Петербург", "fill": null, "fill-opacity": null, "iconCaption": null, "marker-color": "#1bad03", "stroke": null, "stroke-width": null, "stroke-opacity": null }, "geometry": { "type": "Point", "coordinates": [ 30.238934, 59.944422 ] } },
{ "type": "Feature", "properties": { "description": "Супермаркет; </br>\nВилькицкий бул., 4, Санкт-Петербург", "fill": null, "fill-opacity": null, "iconCaption": null, "marker-color": "#1bad03", "stroke": null, "stroke-width": null, "stroke-opacity": null }, "geometry": { "type": "Point", "coordinates": [ 30.201703, 59.939291 ] } },
{ "type": "Feature", "properties": { "description": "Магазин продуктов; </br>\nбул. Головнина, 10, Санкт-Петербург", "fill": null, "fill-opacity": null, "iconCaption": null, "marker-color": "#1bad03", "stroke": null, "stroke-width": null, "stroke-opacity": null }, "geometry": { "type": "Point", "coordinates": [ 30.20017, 59.936739 ] } },
{ "type": "Feature", "properties": { "description": "Супермаркет; </br>\nВилькицкий бул., 6, Санкт-Петербург", "fill": null, "fill-opacity": null, "iconCaption": null, "marker-color": "#1bad03", "stroke": null, "stroke-width": null, "stroke-opacity": null }, "geometry": { "type": "Point", "coordinates": [ 30.198305, 59.937351 ] } },
{ "type": "Feature", "properties": { "description": "Супермаркет; </br>\nМорская наб., 17, корп. 3, Санкт-Петербург", "fill": null, "fill-opacity": null, "iconCaption": null, "marker-color": "#1bad03", "stroke": null, "stroke-width": null, "stroke-opacity": null }, "geometry": { "type": "Point", "coordinates": [ 30.210011, 59.943048 ] } },
{ "type": "Feature", "properties": { "description": "Супермаркет; </br>\nул. Кораблестроителей, 16, корп. 2, Санкт-Петербург", "fill": null, "fill-opacity": null, "iconCaption": null, "marker-color": "#1bad03", "stroke": null, "stroke-width": null, "stroke-opacity": null }, "geometry": { "type": "Point", "coordinates": [ 30.21407, 59.940756 ] } },
{ "type": "Feature", "properties": { "description": "Супермаркет; </br>\nНаличная ул., 41/14, Санкт-Петербург", "fill": null, "fill-opacity": null, "iconCaption": null, "marker-color": "#1bad03", "stroke": null, "stroke-width": null, "stroke-opacity": null }, "geometry": { "type": "Point", "coordinates": [ 30.232112, 59.942437 ] } },
{ "type": "Feature", "properties": { "description": "Супермаркет; </br>\n1-я линия Васильевского острова, 20, Санкт-Петербург", "fill": null, "fill-opacity": null, "iconCaption": null, "marker-color": "#1bad03", "stroke": null, "stroke-width": null, "stroke-opacity": null }, "geometry": { "type": "Point", "coordinates": [ 30.290057, 59.941745 ] } },
{ "type": "Feature", "properties": { "description": "Супермаркет; </br>\n2-я линия Васильевского острова, 39/16, Санкт-Петербург", "fill": null, "fill-opacity": null, "iconCaption": null, "marker-color": "#1bad03", "stroke": null, "stroke-width": null, "stroke-opacity": null }, "geometry": { "type": "Point", "coordinates": [ 30.284029, 59.944536 ] } },
{ "type": "Feature", "properties": { "description": "Магазин продуктов; </br>\nБиржевой пер., 1/10, Санкт-Петербург", "fill": null, "fill-opacity": null, "iconCaption": null, "marker-color": "#1bad03", "stroke": null, "stroke-width": null, "stroke-opacity": null }, "geometry": { "type": "Point", "coordinates": [ 30.293849, 59.945213 ] } },
{ "type": "Feature", "properties": { "description": "Супермаркет; </br>\nБольшой просп. Васильевского острова, 18, Санкт-Петербург", "fill": null, "fill-opacity": null, "iconCaption": null, "marker-color": "#1bad03", "stroke": null, "stroke-width": null, "stroke-opacity": null }, "geometry": { "type": "Point", "coordinates": [ 30.284758, 59.939108 ] } },
{ "type": "Feature", "properties": { "description": "Супермаркет; </br>\n9-я линия Васильевского острова, 42, Санкт-Петербург", "fill": null, "fill-opacity": null, "iconCaption": null, "marker-color": "#1bad03", "stroke": null, "stroke-width": null, "stroke-opacity": null }, "geometry": { "type": "Point", "coordinates": [ 30.275239, 59.942676 ] } },
{ "type": "Feature", "properties": { "description": "Супермаркет; </br>\n10-я линия Васильевского острова, 27/45, Санкт-Петербург", "fill": null, "fill-opacity": null, "iconCaption": null, "marker-color": "#1bad03", "stroke": null, "stroke-width": null, "stroke-opacity": null }, "geometry": { "type": "Point", "coordinates": [ 30.273863, 59.941939 ] } },
{ "type": "Feature", "properties": { "description": "Магазин продуктов; </br>\n7-я линия Васильевского острова, 44, Санкт-Петербург", "fill": null, "fill-opacity": null, "iconCaption": null, "marker-color": "#1bad03", "stroke": null, "stroke-width": null, "stroke-opacity": null }, "geometry": { "type": "Point", "coordinates": [ 30.27912, 59.942429 ] } },
{ "type": "Feature", "properties": { "description": "Магазин продуктов; </br>\n6-я линия Васильевского острова, 31/29Б, Санкт-Петербург", "fill": null, "fill-opacity": null, "iconCaption": null, "marker-color": "#1bad03", "stroke": null, "stroke-width": null, "stroke-opacity": null }, "geometry": { "type": "Point", "coordinates": [ 30.278315, 59.943643 ] } },
{ "type": "Feature", "properties": { "description": "Супермаркет; </br>\nКонногвардейский бул., 6, Санкт-Петербург", "fill": null, "fill-opacity": null, "iconCaption": "Дикси", "marker-color": "#1bad03", "stroke": null, "stroke-width": null, "stroke-opacity": null }, "geometry": { "type": "Point", "coordinates": [ 30.294024, 59.93168 ] } },
{ "type": "Feature", "properties": { "description": "Магазин продуктов; </br>\nСредний просп. Васильевского острова, 19, Санкт-Петербург", "fill": null, "fill-opacity": null, "iconCaption": null, "marker-color": "#1bad03", "stroke": null, "stroke-width": null, "stroke-opacity": null }, "geometry": { "type": "Point", "coordinates": [ 30.282081, 59.944335 ] } },
{ "type": "Feature", "properties": { "description": "Супермаркет; </br>\n4-я линия Васильевского острова, 5, Санкт-Петербург", "fill": null, "fill-opacity": null, "iconCaption": null, "marker-color": "#1bad03", "stroke": null, "stroke-width": null, "stroke-opacity": null }, "geometry": { "type": "Point", "coordinates": [ 30.285342, 59.940489 ] } },
{ "type": "Feature", "properties": { "description": "Супермаркет; </br>\nБольшой просп. Васильевского острова, 29, Санкт-Петербург", "fill": null, "fill-opacity": null, "iconCaption": null, "marker-color": "#1bad03", "stroke": null, "stroke-width": null, "stroke-opacity": null }, "geometry": { "type": "Point", "coordinates": [ 30.280974, 59.939058 ] } },
{ "type": "Feature", "properties": { "description": "Магазин продуктов; </br>\n18-я линия Васильевского острова, 29Б, Санкт-Петербург", "fill": null, "fill-opacity": null, "iconCaption": null, "marker-color": "#1bad03", "stroke": null, "stroke-width": null, "stroke-opacity": null }, "geometry": { "type": "Point", "coordinates": [ 30.267276, 59.938048 ] } },
{ "type": "Feature", "properties": { "description": "Супермаркет; </br>\n17-я линия Васильевского острова, 12В, Санкт-Петербург", "fill": null, "fill-opacity": null, "iconCaption": null, "marker-color": "#1bad03", "stroke": null, "stroke-width": null, "stroke-opacity": null }, "geometry": { "type": "Point", "coordinates": [ 30.270977, 59.93475 ] } },
{ "type": "Feature", "properties": { "description": "Супермаркет; </br>\nБольшой просп. Васильевского острова, 46, Санкт-Петербург", "fill": null, "fill-opacity": null, "iconCaption": null, "marker-color": "#1bad03", "stroke": null, "stroke-width": null, "stroke-opacity": null }, "geometry": { "type": "Point", "coordinates": [ 30.271437, 59.935101 ] } },
{ "type": "Feature", "properties": { "description": "Супермаркет; </br>\nБольшой просп. Васильевского острова, 68, Санкт-Петербург", "fill": null, "fill-opacity": null, "iconCaption": null, "marker-color": "#1bad03", "stroke": null, "stroke-width": null, "stroke-opacity": null }, "geometry": { "type": "Point", "coordinates": [ 30.260266, 59.932013 ] } },
{ "type": "Feature", "properties": { "description": "Супермаркет; </br>\nБольшой просп. Васильевского острова, 38, Санкт-Петербург", "fill": null, "fill-opacity": null, "iconCaption": null, "marker-color": "#1bad03", "stroke": null, "stroke-width": null, "stroke-opacity": null }, "geometry": { "type": "Point", "coordinates": [ 30.273998, 59.936039 ] } },
{ "type": "Feature", "properties": { "description": "Супермаркет; </br>\nБольшой просп. Васильевского острова, 62, Санкт-Петербург", "fill": null, "fill-opacity": null, "iconCaption": null, "marker-color": "#1bad03", "stroke": null, "stroke-width": null, "stroke-opacity": null }, "geometry": { "type": "Point", "coordinates": [ 30.264319, 59.933303 ] } },
{ "type": "Feature", "properties": { "description": "Магазин продуктов; </br>\n16-я линия Васильевского острова, 25, Санкт-Петербург", "fill": null, "fill-opacity": null, "iconCaption": null, "marker-color": "#1bad03", "stroke": null, "stroke-width": null, "stroke-opacity": null }, "geometry": { "type": "Point", "coordinates": [ 30.268441, 59.937667 ] } },
{ "type": "Feature", "properties": { "description": "Супермаркет; </br>\nБольшой просп. Васильевского острова, 43, Санкт-Петербург", "fill": null, "fill-opacity": null, "iconCaption": null, "marker-color": "#1bad03", "stroke": null, "stroke-width": null, "stroke-opacity": null }, "geometry": { "type": "Point", "coordinates": [ 30.275629, 59.937501 ] } },
{ "type": "Feature", "properties": { "description": "Магазин продуктов; </br>\n19-я линия Васильевского острова, 14/54, Санкт-Петербург", "fill": null, "fill-opacity": null, "iconCaption": null, "marker-color": "#1bad03", "stroke": null, "stroke-width": null, "stroke-opacity": null }, "geometry": { "type": "Point", "coordinates": [ 30.268313, 59.934224 ] } },
{ "type": "Feature", "properties": { "description": "Магазин продуктов; </br>\nСредний просп. Васильевского острова, 61, Санкт-Петербург", "fill": null, "fill-opacity": null, "iconCaption": null, "marker-color": "#1bad03", "stroke": null, "stroke-width": null, "stroke-opacity": null }, "geometry": { "type": "Point", "coordinates": [ 30.266903, 59.93989 ] } },
{ "type": "Feature", "properties": { "description": "Магазин продуктов; </br>\nСредний просп. Васильевского острова, 50, Санкт-Петербург", "fill": null, "fill-opacity": null, "iconCaption": null, "marker-color": "#1bad03", "stroke": null, "stroke-width": null, "stroke-opacity": null }, "geometry": { "type": "Point", "coordinates": [ 30.271054, 59.94063 ] } },
{ "type": "Feature", "properties": { "description": "Супермаркет; </br>\nБольшой просп. Васильевского острова, 68, Санкт-Петербург", "fill": null, "fill-opacity": null, "iconCaption": null, "marker-color": "#1bad03", "stroke": null, "stroke-width": null, "stroke-opacity": null }, "geometry": { "type": "Point", "coordinates": [ 30.260266, 59.932013 ] } },
{ "type": "Feature", "properties": { "description": "Супермаркет; </br>\n26-я линия Васильевского острова, 7, Санкт-Петербург", "fill": null, "fill-opacity": null, "iconCaption": null, "marker-color": "#1bad03", "stroke": null, "stroke-width": null, "stroke-opacity": null }, "geometry": { "type": "Point", "coordinates": [ 30.26052, 59.92883 ] } },
{ "type": "Feature", "properties": { "description": "Супермаркет; </br>\n24-я линия Васильевского острова, 25, Санкт-Петербург", "fill": null, "fill-opacity": null, "iconCaption": null, "marker-color": "#1bad03", "stroke": null, "stroke-width": null, "stroke-opacity": null }, "geometry": { "type": "Point", "coordinates": [ 30.255988, 59.936902 ] } },
{ "type": "Feature", "properties": { "description": "Супермаркет; </br>\nУральская ул., 6, Санкт-Петербург", "fill": null, "fill-opacity": null, "iconCaption": null, "marker-color": "#1bad03", "stroke": null, "stroke-width": null, "stroke-opacity": null }, "geometry": { "type": "Point", "coordinates": [ 30.263359, 59.950637 ] } },
{ "type": "Feature", "properties": { "description": "Магазин продуктов; </br>\nнаб. реки Смоленки, 29В, Санкт-Петербург", "fill": null, "fill-opacity": null, "iconCaption": null, "marker-color": "#1bad03", "stroke": null, "stroke-width": null, "stroke-opacity": null }, "geometry": { "type": "Point", "coordinates": [ 30.252958, 59.947906 ] } },
{ "type": "Feature", "properties": { "description": "Супермаркет; </br>\nул. Беринга, 27, корп. 6, Санкт-Петербург", "fill": null, "fill-opacity": null, "iconCaption": null, "marker-color": "#1bad03", "stroke": null, "stroke-width": null, "stroke-opacity": null }, "geometry": { "type": "Point", "coordinates": [ 30.238954, 59.946329 ] } },
{ "type": "Feature", "properties": { "description": "Супермаркет; </br>\nул. Кораблестроителей, 21, Санкт-Петербург", "fill": null, "fill-opacity": null, "iconCaption": null, "marker-color": "#1bad03", "stroke": null, "stroke-width": null, "stroke-opacity": null }, "geometry": { "type": "Point", "coordinates": [ 30.21571, 59.94584 ] } },
{ "type": "Feature", "properties": { "description": "Супермаркет; </br>\nНовосмоленская наб., 1Ж, Санкт-Петербург", "fill": null, "fill-opacity": null, "iconCaption": null, "marker-color": "#1bad03", "stroke": null, "stroke-width": null, "stroke-opacity": null }, "geometry": { "type": "Point", "coordinates": [ 30.220877, 59.950518 ] } },
{ "type": "Feature", "properties": { "description": "Супермаркет; </br>\nМорская наб., 39, корп. 3, Санкт-Петербург", "fill": null, "fill-opacity": null, "iconCaption": null, "marker-color": "#1bad03", "stroke": null, "stroke-width": null, "stroke-opacity": null }, "geometry": { "type": "Point", "coordinates": [ 30.228805, 59.960372 ] } },
{ "type": "Feature", "properties": { "description": "Супермаркет; </br>\nул. Кораблестроителей, 44, корп. 1, Санкт-Петербург", "fill": null, "fill-opacity": null, "iconCaption": null, "marker-color": "#1bad03", "stroke": null, "stroke-width": null, "stroke-opacity": null }, "geometry": { "type": "Point", "coordinates": [ 30.228913, 59.956943 ] } },
{ "type": "Feature", "properties": { "description": "Магазин продуктов; </br>\nАдмиральский пр., 6, Санкт-Петербург", "fill": null, "fill-opacity": null, "iconCaption": null, "marker-color": "#1bad03", "stroke": null, "stroke-width": null, "stroke-opacity": null }, "geometry": { "type": "Point", "coordinates": [ 30.228857, 59.959575 ] } },
{ "type": "Feature", "properties": { "description": "Магазин продуктов; </br>\nул. Кораблестроителей, 40, корп. 1А, Санкт-Петербург", "fill": null, "fill-opacity": null, "iconCaption": null, "marker-color": "#1bad03", "stroke": null, "stroke-width": null, "stroke-opacity": null }, "geometry": { "type": "Point", "coordinates": [ 30.225336, 59.956119 ] } },
{ "type": "Feature", "properties": { "description": "Магазин продуктов; </br>\nМорская наб., 35, корп. 6, Санкт-Петербург", "fill": null, "fill-opacity": null, "iconCaption": null, "marker-color": "#1bad03", "stroke": null, "stroke-width": null, "stroke-opacity": null }, "geometry": { "type": "Point", "coordinates": [ 30.222557, 59.958646 ] } },
{ "type": "Feature", "properties": { "description": "Магазин продуктов; </br>\nНаличная ул., 33А, Санкт-Петербург", "fill": null, "fill-opacity": null, "iconCaption": null, "marker-color": "#1bad03", "stroke": null, "stroke-width": null, "stroke-opacity": null }, "geometry": { "type": "Point", "coordinates": [ 30.23334, 59.93969 ] } },
{ "type": "Feature", "properties": { "description": null, "fill": null, "fill-opacity": null, "iconCaption": null, "marker-color": "#1bad03", "stroke": null, "stroke-width": null, "stroke-opacity": null }, "geometry": { "type": "Point", "coordinates": [ 30.228891542327798, 59.93621385599166 ] } },
{ "type": "Feature", "properties": { "description": null, "fill": null, "fill-opacity": null, "iconCaption": null, "marker-color": "#1bad03", "stroke": null, "stroke-width": null, "stroke-opacity": null }, "geometry": { "type": "Point", "coordinates": [ 30.183315446746573, 59.955934394404863 ] } }
]
}
