{
"type": "FeatureCollection",
"name": "Продуктовые магазины Волковские кладбища",
"crs": { "type": "name", "properties": { "name": "urn:ogc:def:crs:OGC:1.3:CRS84" } },
"features": [
{ "type": "Feature", "properties": { "description": "Продуктовый гипермаркет; </br>\nЛиговский просп., 283, Санкт-Петербург", "fill": null, "fill-opacity": null, "iconCaption": "Гипер Лента", "marker-color": "#1e98ff", "stroke": null, "stroke-width": null, "stroke-opacity": null }, "geometry": { "type": "Point", "coordinates": [ 30.333871, 59.89798 ] } },
{ "type": "Feature", "properties": { "description": "Супермаркет; </br>\nВолковский просп., 6, Санкт-Петербург", "fill": null, "fill-opacity": null, "iconCaption": "Магнит", "marker-color": "#1e98ff", "stroke": null, "stroke-width": null, "stroke-opacity": null }, "geometry": { "type": "Point", "coordinates": [ 30.362472, 59.900131 ] } },
{ "type": "Feature", "properties": { "description": "Продуктовый гипермаркет; </br>\nБоровая ул., 47Б, Санкт-Петербург", "fill": null, "fill-opacity": null, "iconCaption": "Ашан", "marker-color": "#1e98ff", "stroke": null, "stroke-width": null, "stroke-opacity": null }, "geometry": { "type": "Point", "coordinates": [ 30.341063, 59.913898 ] } },
{ "type": "Feature", "properties": { "description": "Супермаркет; </br>\nНово-Рыбинская ул., 19-21, Санкт-Петербург", "fill": null, "fill-opacity": null, "iconCaption": "Светофор", "marker-color": "#1e98ff", "stroke": null, "stroke-width": null, "stroke-opacity": null }, "geometry": { "type": "Point", "coordinates": [ 30.337723, 59.902813 ] } },
{ "type": "Feature", "properties": { "description": "Продуктовый гипермаркет; </br>\nул. Седова, 11А, Санкт-Петербург", "fill": null, "fill-opacity": null, "iconCaption": "Ашан", "marker-color": "#1e98ff", "stroke": null, "stroke-width": null, "stroke-opacity": null }, "geometry": { "type": "Point", "coordinates": [ 30.400781, 59.899965 ] } },
{ "type": "Feature", "properties": { "description": "Супермаркет; </br>\nЛиговский просп., 271, Санкт-Петербург", "fill": null, "fill-opacity": null, "iconCaption": "Магнит", "marker-color": "#1e98ff", "stroke": null, "stroke-width": null, "stroke-opacity": null }, "geometry": { "type": "Point", "coordinates": [ 30.340204, 59.905174 ] } },
{ "type": "Feature", "properties": { "description": "Супермаркет; </br>\nЛиговский просп., 218, Санкт-Петербург", "fill": null, "fill-opacity": null, "iconCaption": "Дикси", "marker-color": "#1e98ff", "stroke": null, "stroke-width": null, "stroke-opacity": null }, "geometry": { "type": "Point", "coordinates": [ 30.34605, 59.907658 ] } },
{ "type": "Feature", "properties": { "description": "Супермаркет; </br>\nТамбовская ул., 32, Санкт-Петербург", "fill": null, "fill-opacity": null, "iconCaption": "Пятёрочка", "marker-color": "#1e98ff", "stroke": null, "stroke-width": null, "stroke-opacity": null }, "geometry": { "type": "Point", "coordinates": [ 30.353782, 59.911451 ] } },
{ "type": "Feature", "properties": { "description": "Супермаркет; </br>\nПрилукская ул., 15, Санкт-Петербург", "fill": null, "fill-opacity": null, "iconCaption": "Пятёрочка", "marker-color": "#1e98ff", "stroke": null, "stroke-width": null, "stroke-opacity": null }, "geometry": { "type": "Point", "coordinates": [ 30.34566, 59.909814 ] } },
{ "type": "Feature", "properties": { "description": "Супермаркет; </br>\nСтрельбищенская ул., 13, Санкт-Петербург", "fill": null, "fill-opacity": null, "iconCaption": "Пятёрочка", "marker-color": "#1e98ff", "stroke": null, "stroke-width": null, "stroke-opacity": null }, "geometry": { "type": "Point", "coordinates": [ 30.358956, 59.886439 ] } },
{ "type": "Feature", "properties": { "description": "Продуктовый гипермаркет; </br>\nул. Фучика, 2, Санкт-Петербург", "fill": null, "fill-opacity": null, "iconCaption": "О'кей", "marker-color": "#1e98ff", "stroke": null, "stroke-width": null, "stroke-opacity": null }, "geometry": { "type": "Point", "coordinates": [ 30.356732, 59.878376 ] } },
{ "type": "Feature", "properties": { "description": "Продуктовый гипермаркет; </br>\nпросп. Космонавтов, 14, Санкт-Петербург", "fill": null, "fill-opacity": null, "iconCaption": "Ашан", "marker-color": "#1e98ff", "stroke": null, "stroke-width": null, "stroke-opacity": null }, "geometry": { "type": "Point", "coordinates": [ 30.350945, 59.869174 ] } },
{ "type": "Feature", "properties": { "description": "Продуктовый гипермаркет; </br>\nЛиговский просп., 283, Санкт-Петербург", "fill": null, "fill-opacity": null, "iconCaption": "Гипер Лента", "marker-color": "#1e98ff", "stroke": null, "stroke-width": null, "stroke-opacity": null }, "geometry": { "type": "Point", "coordinates": [ 30.333871, 59.89798 ] } },
{ "type": "Feature", "properties": { "description": "Супермаркет; </br>\nБухарестская ул., 90, Санкт-Петербург", "fill": null, "fill-opacity": null, "iconCaption": "Пловдив", "marker-color": "#1e98ff", "stroke": null, "stroke-width": null, "stroke-opacity": null }, "geometry": { "type": "Point", "coordinates": [ 30.390245, 59.862959 ] } },
{ "type": "Feature", "properties": { "description": "Супермаркет; </br>\nПражская ул., 48/50, Санкт-Петербург", "fill": null, "fill-opacity": null, "iconCaption": "Перекрёсток", "marker-color": "#1e98ff", "stroke": null, "stroke-width": null, "stroke-opacity": null }, "geometry": { "type": "Point", "coordinates": [ 30.404801, 59.863286 ] } },
{ "type": "Feature", "properties": { "description": "Супермаркет; </br>\nБухарестская ул., 43, корп. 2, Санкт-Петербург", "fill": null, "fill-opacity": null, "iconCaption": "Дикси", "marker-color": "#1e98ff", "stroke": null, "stroke-width": null, "stroke-opacity": null }, "geometry": { "type": "Point", "coordinates": [ 30.390049, 59.860439 ] } },
{ "type": "Feature", "properties": { "description": "Супермаркет; </br>\nул. Белы Куна, 3, Санкт-Петербург", "fill": null, "fill-opacity": null, "iconCaption": "Перекрёсток", "marker-color": "#1e98ff", "stroke": null, "stroke-width": null, "stroke-opacity": null }, "geometry": { "type": "Point", "coordinates": [ 30.379325, 59.870014 ] } },
{ "type": "Feature", "properties": { "description": "Супермаркет; </br>\nул. Турку, 13, корп. 1, Санкт-Петербург", "fill": null, "fill-opacity": null, "iconCaption": "Магнит", "marker-color": "#1e98ff", "stroke": null, "stroke-width": null, "stroke-opacity": null }, "geometry": { "type": "Point", "coordinates": [ 30.387469, 59.866668 ] } },
{ "type": "Feature", "properties": { "description": "Супермаркет; </br>\nБухарестская ул., 43, Санкт-Петербург", "fill": null, "fill-opacity": null, "iconCaption": "Магнит", "marker-color": "#1e98ff", "stroke": null, "stroke-width": null, "stroke-opacity": null }, "geometry": { "type": "Point", "coordinates": [ 30.38951, 59.860902 ] } },
{ "type": "Feature", "properties": { "description": "Супермаркет; </br>\nБухарестская ул., 31, корп. 1, Санкт-Петербург", "fill": null, "fill-opacity": null, "iconCaption": "Пятёрочка", "marker-color": "#1e98ff", "stroke": null, "stroke-width": null, "stroke-opacity": null }, "geometry": { "type": "Point", "coordinates": [ 30.39451002123981, 59.87387157014863 ] } },
{ "type": "Feature", "properties": { "description": "Супермаркет; </br>\nул. Турку, 11, корп. 2, Санкт-Петербург", "fill": null, "fill-opacity": null, "iconCaption": "РеалЪ", "marker-color": "#1e98ff", "stroke": null, "stroke-width": null, "stroke-opacity": null }, "geometry": { "type": "Point", "coordinates": [ 30.380152, 59.865735 ] } },
{ "type": "Feature", "properties": { "description": "Супермаркет; </br>\nЮжное ш., 55, корп. 1, Санкт-Петербург", "fill": null, "fill-opacity": null, "iconCaption": "Дикси", "marker-color": "#1e98ff", "stroke": null, "stroke-width": null, "stroke-opacity": null }, "geometry": { "type": "Point", "coordinates": [ 30.404131, 59.857606 ] } },
{ "type": "Feature", "properties": { "description": "Супермаркет; </br>\nПражская ул., 35, Санкт-Петербург", "fill": null, "fill-opacity": null, "iconCaption": "Магнит", "marker-color": "#1e98ff", "stroke": null, "stroke-width": null, "stroke-opacity": null }, "geometry": { "type": "Point", "coordinates": [ 30.39906, 59.863815 ] } },
{ "type": "Feature", "properties": { "description": "Супермаркет; </br>\nБухарестская ул., 74, Санкт-Петербург", "fill": null, "fill-opacity": null, "iconCaption": "Магнит", "marker-color": "#1e98ff", "stroke": null, "stroke-width": null, "stroke-opacity": null }, "geometry": { "type": "Point", "coordinates": [ 30.381511, 59.870835 ] } },
{ "type": "Feature", "properties": { "description": "Супермаркет; </br>\nПражская ул., 35, Санкт-Петербург", "fill": null, "fill-opacity": null, "iconCaption": "Пятёрочка", "marker-color": "#1e98ff", "stroke": null, "stroke-width": null, "stroke-opacity": null }, "geometry": { "type": "Point", "coordinates": [ 30.399277, 59.864218 ] } },
{ "type": "Feature", "properties": { "description": "Супермаркет; </br>\nпросп. Славы, 43/49, Санкт-Петербург", "fill": null, "fill-opacity": null, "iconCaption": "Магнит", "marker-color": "#1e98ff", "stroke": null, "stroke-width": null, "stroke-opacity": null }, "geometry": { "type": "Point", "coordinates": [ 30.388993, 59.857699 ] } },
{ "type": "Feature", "properties": { "description": "Супермаркет; </br>\nул. Белы Куна, 6, корп. 1, Санкт-Петербург", "fill": null, "fill-opacity": null, "iconCaption": "Пятёрочка", "marker-color": "#1e98ff", "stroke": null, "stroke-width": null, "stroke-opacity": null }, "geometry": { "type": "Point", "coordinates": [ 30.378479, 59.871501 ] } },
{ "type": "Feature", "properties": { "description": "Супермаркет; </br>\nЮжное ш., 47, корп. 1, Санкт-Петербург", "fill": null, "fill-opacity": null, "iconCaption": "Пятёрочка", "marker-color": "#1e98ff", "stroke": null, "stroke-width": null, "stroke-opacity": null }, "geometry": { "type": "Point", "coordinates": [ 30.411534, 59.860574 ] } },
{ "type": "Feature", "properties": { "description": "Супермаркет; </br>\nСофийская ул., 28, Санкт-Петербург", "fill": null, "fill-opacity": null, "iconCaption": "Дикси", "marker-color": "#1e98ff", "stroke": null, "stroke-width": null, "stroke-opacity": null }, "geometry": { "type": "Point", "coordinates": [ 30.402968, 59.875145 ] } },
{ "type": "Feature", "properties": { "description": "Супермаркет; </br>\nБухарестская ул., 74, Санкт-Петербург", "fill": null, "fill-opacity": null, "iconCaption": "ВкусВилл", "marker-color": "#1e98ff", "stroke": null, "stroke-width": null, "stroke-opacity": null }, "geometry": { "type": "Point", "coordinates": [ 30.381688, 59.870867 ] } },
{ "type": "Feature", "properties": { "description": "Супермаркет; </br>\nБухарестская ул., 72, корп. 7, Санкт-Петербург", "fill": null, "fill-opacity": null, "iconCaption": "Дикси", "marker-color": "#1e98ff", "stroke": null, "stroke-width": null, "stroke-opacity": null }, "geometry": { "type": "Point", "coordinates": [ 30.376457, 59.876718 ] } },
{ "type": "Feature", "properties": { "description": "Супермаркет; </br>\nСофийская ул., 47, корп. 1, Санкт-Петербург", "fill": null, "fill-opacity": null, "iconCaption": "Магнит", "marker-color": "#1e98ff", "stroke": null, "stroke-width": null, "stroke-opacity": null }, "geometry": { "type": "Point", "coordinates": [ 30.406005, 59.871057 ] } },
{ "type": "Feature", "properties": { "description": "Супермаркет; </br>\nЮжное ш., 45, корп. 5, Санкт-Петербург", "fill": null, "fill-opacity": null, "iconCaption": "Супер Лента", "marker-color": "#1e98ff", "stroke": null, "stroke-width": null, "stroke-opacity": null }, "geometry": { "type": "Point", "coordinates": [ 30.413886, 59.859989 ] } },
{ "type": "Feature", "properties": { "description": "Супермаркет; </br>\nул. Бабушкина, 17, Санкт-Петербург", "fill": null, "fill-opacity": null, "iconCaption": "Дикси", "marker-color": "#1e98ff", "stroke": null, "stroke-width": null, "stroke-opacity": null }, "geometry": { "type": "Point", "coordinates": [ 30.423842, 59.895879 ] } },
{ "type": "Feature", "properties": { "description": "Супермаркет; </br>\nул. Бабушкина, 9, Санкт-Петербург", "fill": null, "fill-opacity": null, "iconCaption": "Пятёрочка", "marker-color": "#1e98ff", "stroke": null, "stroke-width": null, "stroke-opacity": null }, "geometry": { "type": "Point", "coordinates": [ 30.421148, 59.896846 ] } },
{ "type": "Feature", "properties": { "description": "Супермаркет; </br>\nул. Седова, 17, корп. 2, Санкт-Петербург", "fill": null, "fill-opacity": null, "iconCaption": "Магнит", "marker-color": "#1e98ff", "stroke": null, "stroke-width": null, "stroke-opacity": null }, "geometry": { "type": "Point", "coordinates": [ 30.413312, 59.893604 ] } },
{ "type": "Feature", "properties": { "description": "Супермаркет; </br>\nул. Бабушкина, 18, Санкт-Петербург", "fill": null, "fill-opacity": null, "iconCaption": "Магнит", "marker-color": "#1e98ff", "stroke": null, "stroke-width": null, "stroke-opacity": null }, "geometry": { "type": "Point", "coordinates": [ 30.429308, 59.892659 ] } },
{ "type": "Feature", "properties": { "description": "Супермаркет; </br>\nпер. Ногина, 3, Санкт-Петербург", "fill": null, "fill-opacity": null, "iconCaption": "Пятёрочка", "marker-color": "#1e98ff", "stroke": null, "stroke-width": null, "stroke-opacity": null }, "geometry": { "type": "Point", "coordinates": [ 30.425725, 59.899826 ] } },
{ "type": "Feature", "properties": { "description": "Продуктовый гипермаркет; </br>\nул. Седова, 11А, Санкт-Петербург", "fill": null, "fill-opacity": null, "iconCaption": "Ашан", "marker-color": "#1e98ff", "stroke": null, "stroke-width": null, "stroke-opacity": null }, "geometry": { "type": "Point", "coordinates": [ 30.400781, 59.899965 ] } },
{ "type": "Feature", "properties": { "description": "Продуктовый гипермаркет; </br>\nул. Седова, 11А, Санкт-Петербург", "fill": null, "fill-opacity": null, "iconCaption": "Ашан", "marker-color": "#1e98ff", "stroke": null, "stroke-width": null, "stroke-opacity": null }, "geometry": { "type": "Point", "coordinates": [ 30.400781, 59.899965 ] } },
{ "type": "Feature", "properties": { "description": "Супермаркет; </br>\nпросп. Обуховской Обороны, 95, корп. 2, Санкт-Петербург", "fill": null, "fill-opacity": null, "iconCaption": "Дикси", "marker-color": "#1e98ff", "stroke": null, "stroke-width": null, "stroke-opacity": null }, "geometry": { "type": "Point", "coordinates": [ 30.431997, 59.897408 ] } },
{ "type": "Feature", "properties": { "description": "Супермаркет; </br>\nул. Крупской, 35, Санкт-Петербург", "fill": null, "fill-opacity": null, "iconCaption": "Пятёрочка", "marker-color": "#1e98ff", "stroke": null, "stroke-width": null, "stroke-opacity": null }, "geometry": { "type": "Point", "coordinates": [ 30.424646, 59.888893 ] } },
{ "type": "Feature", "properties": { "description": "Супермаркет; </br>\nул. Крупской, 19, Санкт-Петербург", "fill": null, "fill-opacity": null, "iconCaption": "Магнит", "marker-color": "#1e98ff", "stroke": null, "stroke-width": null, "stroke-opacity": null }, "geometry": { "type": "Point", "coordinates": [ 30.43119, 59.890209 ] } },
{ "type": "Feature", "properties": { "description": "Супермаркет; </br>\nул. Ольминского, 8, Санкт-Петербург", "fill": null, "fill-opacity": null, "iconCaption": "Магнит", "marker-color": "#1e98ff", "stroke": null, "stroke-width": null, "stroke-opacity": null }, "geometry": { "type": "Point", "coordinates": [ 30.424027, 59.899274 ] } },
{ "type": "Feature", "properties": { "description": "Магазин продуктов; </br>\nпросп. Обуховской Обороны, 88, Санкт-Петербург", "fill": null, "fill-opacity": null, "iconCaption": "Продуктовый магазин", "marker-color": "#1e98ff", "stroke": null, "stroke-width": null, "stroke-opacity": null }, "geometry": { "type": "Point", "coordinates": [ 30.438995, 59.893235 ] } },
{ "type": "Feature", "properties": { "description": "Магазин продуктов; </br>\nул. Седова, 29, Санкт-Петербург", "fill": null, "fill-opacity": null, "iconCaption": "Семишагофф", "marker-color": "#1e98ff", "stroke": null, "stroke-width": null, "stroke-opacity": null }, "geometry": { "type": "Point", "coordinates": [ 30.417601, 59.89065 ] } },
{ "type": "Feature", "properties": { "description": "Супермаркет; </br>\nМосковский просп., 97, Санкт-Петербург", "fill": null, "fill-opacity": null, "iconCaption": "Сезон", "marker-color": "#1e98ff", "stroke": null, "stroke-width": null, "stroke-opacity": null }, "geometry": { "type": "Point", "coordinates": [ 30.318533, 59.893059 ] } },
{ "type": "Feature", "properties": { "description": "Супермаркет; </br>\nМосковский просп., 97, Санкт-Петербург", "fill": null, "fill-opacity": null, "iconCaption": "Сезон", "marker-color": "#1e98ff", "stroke": null, "stroke-width": null, "stroke-opacity": null }, "geometry": { "type": "Point", "coordinates": [ 30.318533, 59.893059 ] } },
{ "type": "Feature", "properties": { "description": "Супермаркет; </br>\nМосковский просп., 111, Санкт-Петербург", "fill": null, "fill-opacity": null, "iconCaption": "Азбука вкуса", "marker-color": "#1e98ff", "stroke": null, "stroke-width": null, "stroke-opacity": null }, "geometry": { "type": "Point", "coordinates": [ 30.318909, 59.889048 ] } },
{ "type": "Feature", "properties": { "description": "Супермаркет; </br>\nЛиговский просп., 287, Санкт-Петербург", "fill": null, "fill-opacity": null, "iconCaption": "Семейный", "marker-color": "#1e98ff", "stroke": null, "stroke-width": null, "stroke-opacity": null }, "geometry": { "type": "Point", "coordinates": [ 30.331957, 59.895994 ] } },
{ "type": "Feature", "properties": { "description": "Супермаркет; </br>\nЗаставская ул., 22, корп. 2, Санкт-Петербург", "fill": null, "fill-opacity": null, "iconCaption": "Пятёрочка", "marker-color": "#1e98ff", "stroke": null, "stroke-width": null, "stroke-opacity": null }, "geometry": { "type": "Point", "coordinates": [ 30.327628, 59.888644 ] } },
{ "type": "Feature", "properties": { "description": "Супермаркет; </br>\nМосковский просп., 124, Санкт-Петербург", "fill": null, "fill-opacity": null, "iconCaption": "Магнит", "marker-color": "#1e98ff", "stroke": null, "stroke-width": null, "stroke-opacity": null }, "geometry": { "type": "Point", "coordinates": [ 30.320118, 59.889418 ] } },
{ "type": "Feature", "properties": { "description": "Супермаркет; </br>\nПарфёновская ул., 11, корп. 1, Санкт-Петербург", "fill": null, "fill-opacity": null, "iconCaption": "Монетка", "marker-color": "#1e98ff", "stroke": null, "stroke-width": null, "stroke-opacity": null }, "geometry": { "type": "Point", "coordinates": [ 30.311414, 59.89778 ] } },
{ "type": "Feature", "properties": { "description": "Супермаркет; </br>\nЗаставская ул., 46, корп. 1, Санкт-Петербург", "fill": null, "fill-opacity": null, "iconCaption": "Пятёрочка", "marker-color": "#1e98ff", "stroke": null, "stroke-width": null, "stroke-opacity": null }, "geometry": { "type": "Point", "coordinates": [ 30.314163, 59.887522 ] } },
{ "type": "Feature", "properties": { "description": "Супермаркет; </br>\nПарфёновская ул., 17, Санкт-Петербург", "fill": null, "fill-opacity": null, "iconCaption": "Магнит", "marker-color": "#1e98ff", "stroke": null, "stroke-width": null, "stroke-opacity": null }, "geometry": { "type": "Point", "coordinates": [ 30.312625, 59.892834 ] } },
{ "type": "Feature", "properties": { "description": "Супермаркет; </br>\nул. Красуцкого, 3М, Санкт-Петербург", "fill": null, "fill-opacity": null, "iconCaption": "РеалЪ", "marker-color": "#1e98ff", "stroke": null, "stroke-width": null, "stroke-opacity": null }, "geometry": { "type": "Point", "coordinates": [ 30.315356, 59.902996 ] } },
{ "type": "Feature", "properties": { "description": "Супермаркет; </br>\nМосковский просп., 109, Санкт-Петербург", "fill": null, "fill-opacity": null, "iconCaption": "ВкусВилл", "marker-color": "#1e98ff", "stroke": null, "stroke-width": null, "stroke-opacity": null }, "geometry": { "type": "Point", "coordinates": [ 30.318752, 59.889846 ] } },
{ "type": "Feature", "properties": { "description": "Супермаркет; </br>\nПарфёновская ул., 9, корп. 1, Санкт-Петербург", "fill": null, "fill-opacity": null, "iconCaption": "Ценбери", "marker-color": "#1e98ff", "stroke": null, "stroke-width": null, "stroke-opacity": null }, "geometry": { "type": "Point", "coordinates": [ 30.311622, 59.900373 ] } },
{ "type": "Feature", "properties": { "description": "Супермаркет; </br>\nМосковский просп., 70, Санкт-Петербург", "fill": null, "fill-opacity": null, "iconCaption": "РеалЪ", "marker-color": "#1e98ff", "stroke": null, "stroke-width": null, "stroke-opacity": null }, "geometry": { "type": "Point", "coordinates": [ 30.3188, 59.906934 ] } },
{ "type": "Feature", "properties": { "description": "Супермаркет; </br>\nНово-Рыбинская ул., 19-21, Санкт-Петербург", "fill": null, "fill-opacity": null, "iconCaption": "Светофор", "marker-color": "#1e98ff", "stroke": null, "stroke-width": null, "stroke-opacity": null }, "geometry": { "type": "Point", "coordinates": [ 30.337723, 59.902813 ] } },
{ "type": "Feature", "properties": { "description": "Супермаркет; </br>\nЛиговский просп., 232, Санкт-Петербург", "fill": null, "fill-opacity": null, "iconCaption": "Универсам Семейный", "marker-color": "#1e98ff", "stroke": null, "stroke-width": null, "stroke-opacity": null }, "geometry": { "type": "Point", "coordinates": [ 30.347264, 59.905431 ] } },
{ "type": "Feature", "properties": { "description": "Продуктовый гипермаркет; </br>\nпросп. Космонавтов, 14, Санкт-Петербург", "fill": null, "fill-opacity": null, "iconCaption": "Ашан", "marker-color": "#1e98ff", "stroke": null, "stroke-width": null, "stroke-opacity": null }, "geometry": { "type": "Point", "coordinates": [ 30.350945, 59.869174 ] } },
{ "type": "Feature", "properties": { "description": "Продуктовый гипермаркет; </br>\nул. Фучика, 2, Санкт-Петербург", "fill": null, "fill-opacity": null, "iconCaption": "О'кей", "marker-color": "#1e98ff", "stroke": null, "stroke-width": null, "stroke-opacity": null }, "geometry": { "type": "Point", "coordinates": [ 30.356732, 59.878376 ] } },
{ "type": "Feature", "properties": { "description": "Продуктовый гипермаркет; </br>\nЛиговский просп., 283, Санкт-Петербург", "fill": null, "fill-opacity": null, "iconCaption": "Гипер Лента", "marker-color": "#1e98ff", "stroke": null, "stroke-width": null, "stroke-opacity": null }, "geometry": { "type": "Point", "coordinates": [ 30.333871, 59.89798 ] } },
{ "type": "Feature", "properties": { "description": "Продуктовый гипермаркет; </br>\nул. Фучика, 2, Санкт-Петербург", "fill": null, "fill-opacity": null, "iconCaption": "О'кей", "marker-color": "#1e98ff", "stroke": null, "stroke-width": null, "stroke-opacity": null }, "geometry": { "type": "Point", "coordinates": [ 30.356732, 59.878376 ] } },
{ "type": "Feature", "properties": { "description": "Супермаркет; </br>\nМосковский просп., 97, Санкт-Петербург", "fill": null, "fill-opacity": null, "iconCaption": "Сезон", "marker-color": "#1e98ff", "stroke": null, "stroke-width": null, "stroke-opacity": null }, "geometry": { "type": "Point", "coordinates": [ 30.318533, 59.893059 ] } },
{ "type": "Feature", "properties": { "description": "Супермаркет; </br>\nБухарестская ул., 90, Санкт-Петербург", "fill": null, "fill-opacity": null, "iconCaption": "Пловдив", "marker-color": "#1e98ff", "stroke": null, "stroke-width": null, "stroke-opacity": null }, "geometry": { "type": "Point", "coordinates": [ 30.390245, 59.862959 ] } },
{ "type": "Feature", "properties": { "description": "Супермаркет; </br>\nБлагодатная ул., 40, Санкт-Петербург", "fill": null, "fill-opacity": null, "iconCaption": "Магнит", "marker-color": "#1e98ff", "stroke": null, "stroke-width": null, "stroke-opacity": null }, "geometry": { "type": "Point", "coordinates": [ 30.333781, 59.876334 ] } },
{ "type": "Feature", "properties": { "description": "Супермаркет; </br>\nМосковский просп., 184, Санкт-Петербург", "fill": null, "fill-opacity": null, "iconCaption": "Магнит", "marker-color": "#1e98ff", "stroke": null, "stroke-width": null, "stroke-opacity": null }, "geometry": { "type": "Point", "coordinates": [ 30.321009, 59.873781 ] } },
{ "type": "Feature", "properties": { "description": "Продуктовый гипермаркет; </br>\nпросп. Космонавтов, 14, Санкт-Петербург", "fill": null, "fill-opacity": null, "iconCaption": "Ашан", "marker-color": "#1e98ff", "stroke": null, "stroke-width": null, "stroke-opacity": null }, "geometry": { "type": "Point", "coordinates": [ 30.350945, 59.869174 ] } }
]
}
