{
"type": "FeatureCollection",
"name": "Школы и детские сады Смоленские кладбища",
"crs": { "type": "name", "properties": { "name": "urn:ogc:def:crs:OGC:1.3:CRS84" } },
"features": [
{ "type": "Feature", "properties": { "description": "Общеобразовательная школа; </br>\nул. Шевченко, 36, Санкт-Петербург", "fill": null, "fill-opacity": null, "iconCaption": null, "marker-color": "#82cdff", "stroke": null, "stroke-width": null, "stroke-opacity": null, "type": "school" }, "geometry": { "type": "Point", "coordinates": [ 30.238665492065362, 59.940622610376167 ] } },
{ "type": "Feature", "properties": { "description": "Общеобразовательная школа; </br>\nГаванская ул., 54, Санкт-Петербург", "fill": null, "fill-opacity": null, "iconCaption": null, "marker-color": "#82cdff", "stroke": null, "stroke-width": null, "stroke-opacity": null, "type": "school" }, "geometry": { "type": "Point", "coordinates": [ 30.236136626983651, 59.94010197106121 ] } },
{ "type": "Feature", "properties": { "description": "Общеобразовательная школа; </br>\nул. Кораблестроителей, 42, корп. 2, Санкт-Петербург", "fill": null, "fill-opacity": null, "iconCaption": null, "marker-color": "#82cdff", "stroke": null, "stroke-width": null, "stroke-opacity": null, "type": "school" }, "geometry": { "type": "Point", "coordinates": [ 30.227563, 59.958706 ] } },
{ "type": "Feature", "properties": { "description": "Общеобразовательная школа; </br>\nул. Кораблестроителей, 38, корп. 2, Санкт-Петербург", "fill": null, "fill-opacity": null, "iconCaption": null, "marker-color": "#82cdff", "stroke": null, "stroke-width": null, "stroke-opacity": null, "type": "school" }, "geometry": { "type": "Point", "coordinates": [ 30.218665, 59.957796 ] } },
{ "type": "Feature", "properties": { "description": "Общеобразовательная школа; </br>\nул. Шевченко, 3, Санкт-Петербург", "fill": null, "fill-opacity": null, "iconCaption": null, "marker-color": "#82cdff", "stroke": null, "stroke-width": null, "stroke-opacity": null, "type": "school" }, "geometry": { "type": "Point", "coordinates": [ 30.247255, 59.929898 ] } },
{ "type": "Feature", "properties": { "description": "Общеобразовательная школа; </br>\nНаличная ул., 32, корп. 2, Санкт-Петербург", "fill": null, "fill-opacity": null, "iconCaption": null, "marker-color": "#82cdff", "stroke": null, "stroke-width": null, "stroke-opacity": null, "type": "school" }, "geometry": { "type": "Point", "coordinates": [ 30.224442, 59.944144 ] } },
{ "type": "Feature", "properties": { "description": "Общеобразовательная школа; </br>\n12-я линия Васильевского острова, 47, Санкт-Петербург", "fill": null, "fill-opacity": null, "iconCaption": "С", "marker-color": "#82cdff", "stroke": null, "stroke-width": null, "stroke-opacity": null, "type": "school" }, "geometry": { "type": "Point", "coordinates": [ 30.267214, 59.944768 ] } },
{ "type": "Feature", "properties": { "description": "Общеобразовательная школа; </br>\n10-я линия Васильевского острова, 1/15, Санкт-Петербург", "fill": null, "fill-opacity": null, "iconCaption": null, "marker-color": "#82cdff", "stroke": null, "stroke-width": null, "stroke-opacity": null, "type": "school" }, "geometry": { "type": "Point", "coordinates": [ 30.281029, 59.935612 ] } },
{ "type": "Feature", "properties": { "description": "Детский сад, ясли; </br>\nУральская ул., 4, корп. 2, Санкт-Петербург", "fill": null, "fill-opacity": null, "iconCaption": null, "marker-color": "#82cdff", "stroke": null, "stroke-width": null, "stroke-opacity": null, "type": "kndrgrdn" }, "geometry": { "type": "Point", "coordinates": [ 30.265448, 59.949636 ] } },
{ "type": "Feature", "properties": { "description": "Лицей; </br>\nул. Шевченко, 23, корп. 2, Санкт-Петербург", "fill": null, "fill-opacity": null, "iconCaption": null, "marker-color": "#82cdff", "stroke": null, "stroke-width": null, "stroke-opacity": null, "type": "school" }, "geometry": { "type": "Point", "coordinates": [ 30.245399, 59.936346 ] } },
{ "type": "Feature", "properties": { "description": "Лицей; </br>\nСредний просп. Васильевского острова, 31, Санкт-Петербург", "fill": null, "fill-opacity": null, "iconCaption": null, "marker-color": "#82cdff", "stroke": null, "stroke-width": null, "stroke-opacity": null, "type": "school" }, "geometry": { "type": "Point", "coordinates": [ 30.278005, 59.943115 ] } },
{ "type": "Feature", "properties": { "description": "Школа искусств; </br>\nДетская ул., 17, корп. 1, Санкт-Петербург", "fill": null, "fill-opacity": null, "iconCaption": null, "marker-color": "#82cdff", "stroke": null, "stroke-width": null, "stroke-opacity": null, "type": "school" }, "geometry": { "type": "Point", "coordinates": [ 30.250519, 59.932731 ] } },
{ "type": "Feature", "properties": { "description": "Гимназия; </br>\n16-я линия Васильевского острова, 55, Санкт-Петербург", "fill": null, "fill-opacity": null, "iconCaption": null, "marker-color": "#82cdff", "stroke": null, "stroke-width": null, "stroke-opacity": null, "type": "school" }, "geometry": { "type": "Point", "coordinates": [ 30.264017, 59.941675 ] } },
{ "type": "Feature", "properties": { "description": "Гимназия; </br>\nСредний просп. Васильевского острова, 20, Санкт-Петербург", "fill": null, "fill-opacity": null, "iconCaption": null, "marker-color": "#82cdff", "stroke": null, "stroke-width": null, "stroke-opacity": null, "type": "school" }, "geometry": { "type": "Point", "coordinates": [ 30.282186, 59.94391 ] } },
{ "type": "Feature", "properties": { "description": "Начальная школа; </br>\n17-я линия Васильевского острова, 34-36, Санкт-Петербург", "fill": null, "fill-opacity": null, "iconCaption": null, "marker-color": "#82cdff", "stroke": null, "stroke-width": null, "stroke-opacity": null, "type": "school" }, "geometry": { "type": "Point", "coordinates": [ 30.264721, 59.94021 ] } },
{ "type": "Feature", "properties": { "description": "Гимназия; </br>\n2-я линия Васильевского острова, 43В, Санкт-Петербург", "fill": null, "fill-opacity": null, "iconCaption": null, "marker-color": "#82cdff", "stroke": null, "stroke-width": null, "stroke-opacity": null, "type": "school" }, "geometry": { "type": "Point", "coordinates": [ 30.282649, 59.945775 ] } },
{ "type": "Feature", "properties": { "description": "Гимназия; </br>\nпер. Каховского, 9, Санкт-Петербург", "fill": null, "fill-opacity": null, "iconCaption": null, "marker-color": "#82cdff", "stroke": null, "stroke-width": null, "stroke-opacity": null, "type": "school" }, "geometry": { "type": "Point", "coordinates": [ 30.235708, 59.952302 ] } },
{ "type": "Feature", "properties": { "description": "Гимназия; </br>\nМорская наб., 15, корп. 2, Санкт-Петербург", "fill": null, "fill-opacity": null, "iconCaption": null, "marker-color": "#82cdff", "stroke": null, "stroke-width": null, "stroke-opacity": null, "type": "school" }, "geometry": { "type": "Point", "coordinates": [ 30.212123, 59.941049 ] } },
{ "type": "Feature", "properties": { "description": "Гимназия; </br>\nул. Кораблестроителей, 37, корп. 5, Санкт-Петербург", "fill": null, "fill-opacity": null, "iconCaption": null, "marker-color": "#82cdff", "stroke": null, "stroke-width": null, "stroke-opacity": null, "type": "school" }, "geometry": { "type": "Point", "coordinates": [ 30.229086, 59.953376 ] } },
{ "type": "Feature", "properties": { "description": "Гимназия; </br>\nОпочинина ул., 35, Санкт-Петербург", "fill": null, "fill-opacity": null, "iconCaption": null, "marker-color": "#82cdff", "stroke": null, "stroke-width": null, "stroke-opacity": null, "type": "school" }, "geometry": { "type": "Point", "coordinates": [ 30.236509, 59.936607 ] } },
{ "type": "Feature", "properties": { "description": "Гимназия; </br>\nГаванская ул., 54Б, Санкт-Петербург", "fill": null, "fill-opacity": null, "iconCaption": null, "marker-color": "#82cdff", "stroke": null, "stroke-width": null, "stroke-opacity": null, "type": "school" }, "geometry": { "type": "Point", "coordinates": [ 30.235428, 59.940976427598301 ] } },
{ "type": "Feature", "properties": { "description": "Гимназия; </br>\nОпочинина ул., 35, Санкт-Петербург", "fill": null, "fill-opacity": null, "iconCaption": null, "marker-color": "#82cdff", "stroke": null, "stroke-width": null, "stroke-opacity": null, "type": "school" }, "geometry": { "type": "Point", "coordinates": [ 30.236509, 59.936607 ] } },
{ "type": "Feature", "properties": { "description": "Гимназия; </br>\nНаличная ул., 44, корп. 4, Санкт-Петербург", "fill": null, "fill-opacity": null, "iconCaption": null, "marker-color": "#82cdff", "stroke": null, "stroke-width": null, "stroke-opacity": null, "type": "school" }, "geometry": { "type": "Point", "coordinates": [ 30.228275169310646, 59.95278942558749 ] } },
{ "type": "Feature", "properties": { "description": "Детский сад, ясли; </br>\nМичманская ул., 2, корп. 2, Санкт-Петербург", "fill": null, "fill-opacity": null, "iconCaption": null, "marker-color": "#ff931e", "stroke": null, "stroke-width": null, "stroke-opacity": null, "type": "kndrgrdn" }, "geometry": { "type": "Point", "coordinates": [ 30.208674, 59.945096 ] } },
{ "type": "Feature", "properties": { "description": "Детский сад, ясли; </br>\nпросп. КИМа, 1, Санкт-Петербург", "fill": null, "fill-opacity": null, "iconCaption": null, "marker-color": "#ff931e", "stroke": null, "stroke-width": null, "stroke-opacity": null, "type": "kndrgrdn" }, "geometry": { "type": "Point", "coordinates": [ 30.249364, 59.949145 ] } },
{ "type": "Feature", "properties": { "description": "Детский сад, ясли; </br>\nЖелезноводская ул., 50, Санкт-Петербург", "fill": null, "fill-opacity": null, "iconCaption": null, "marker-color": "#ff931e", "stroke": null, "stroke-width": null, "stroke-opacity": null, "type": "kndrgrdn" }, "geometry": { "type": "Point", "coordinates": [ 30.24147, 59.949566 ] } },
{ "type": "Feature", "properties": { "description": "Детский сад, ясли; </br>\nМорская наб., 43, корп. 2, Санкт-Петербург", "fill": null, "fill-opacity": null, "iconCaption": null, "marker-color": "#ff931e", "stroke": null, "stroke-width": null, "stroke-opacity": null, "type": "kndrgrdn" }, "geometry": { "type": "Point", "coordinates": [ 30.232664, 59.95812 ] } },
{ "type": "Feature", "properties": { "description": "Детский сад, ясли; </br>\nНаличная ул., 40, корп. 6, Санкт-Петербург", "fill": null, "fill-opacity": null, "iconCaption": null, "marker-color": "#ff931e", "stroke": null, "stroke-width": null, "stroke-opacity": null, "type": "kndrgrdn" }, "geometry": { "type": "Point", "coordinates": [ 30.226683, 59.95083 ] } },
{ "type": "Feature", "properties": { "description": "Детский сад, ясли; </br>\nпросп. КИМа, 26В, Санкт-Петербург", "fill": null, "fill-opacity": null, "iconCaption": null, "marker-color": "#ff931e", "stroke": null, "stroke-width": null, "stroke-opacity": null, "type": "kndrgrdn" }, "geometry": { "type": "Point", "coordinates": [ 30.243066, 59.953063 ] } },
{ "type": "Feature", "properties": { "description": "Детский сад, ясли; </br>\nул. Кораблестроителей, 22, корп. 3, Санкт-Петербург", "fill": null, "fill-opacity": null, "iconCaption": null, "marker-color": "#ff931e", "stroke": null, "stroke-width": null, "stroke-opacity": null, "type": "kndrgrdn" }, "geometry": { "type": "Point", "coordinates": [ 30.20937, 59.944038 ] } },
{ "type": "Feature", "properties": { "description": "Детский сад, ясли; </br>\nНаличная ул., 40, корп. 3, Санкт-Петербург", "fill": null, "fill-opacity": null, "iconCaption": null, "marker-color": "#ff931e", "stroke": null, "stroke-width": null, "stroke-opacity": null, "type": "kndrgrdn" }, "geometry": { "type": "Point", "coordinates": [ 30.229971, 59.95035 ] } },
{ "type": "Feature", "properties": { "description": "Детский сад, ясли; </br>\nул. Шевченко, 27, корп. 2, Санкт-Петербург", "fill": null, "fill-opacity": null, "iconCaption": null, "marker-color": "#ff931e", "stroke": null, "stroke-width": null, "stroke-opacity": null, "type": "kndrgrdn" }, "geometry": { "type": "Point", "coordinates": [ 30.243954, 59.937773 ] } },
{ "type": "Feature", "properties": { "description": "Детский сад, ясли; </br>\nул. Беринга, 22, корп. 2, Санкт-Петербург", "fill": null, "fill-opacity": null, "iconCaption": null, "marker-color": "#ff931e", "stroke": null, "stroke-width": null, "stroke-opacity": null, "type": "kndrgrdn" }, "geometry": { "type": "Point", "coordinates": [ 30.239557, 59.941543 ] } },
{ "type": "Feature", "properties": { "description": "Детский сад, ясли; </br>\nГаванская ул., 58, Санкт-Петербург", "fill": null, "fill-opacity": null, "iconCaption": null, "marker-color": "#ff931e", "stroke": null, "stroke-width": null, "stroke-opacity": null, "type": "kndrgrdn" }, "geometry": { "type": "Point", "coordinates": [ 30.236423711639372, 59.941448063912496 ] } },
{ "type": "Feature", "properties": { "description": "Начальная школа; </br>\nДетская ул., 32, Санкт-Петербург", "fill": null, "fill-opacity": null, "iconCaption": null, "marker-color": "#ff931e", "stroke": null, "stroke-width": null, "stroke-opacity": null, "type": "school" }, "geometry": { "type": "Point", "coordinates": [ 30.247612, 59.931881 ] } },
{ "type": "Feature", "properties": { "description": "Детский сад, ясли; </br>\n12-я линия Васильевского острова, 21, Санкт-Петербург", "fill": null, "fill-opacity": null, "iconCaption": null, "marker-color": "#ff931e", "stroke": null, "stroke-width": null, "stroke-opacity": null, "type": "kndrgrdn" }, "geometry": { "type": "Point", "coordinates": [ 30.27307, 59.939364 ] } },
{ "type": "Feature", "properties": { "description": "Детский сад, ясли; </br>\nНаличная ул., 36, корп. 8, Санкт-Петербург", "fill": null, "fill-opacity": null, "iconCaption": null, "marker-color": "#ff931e", "stroke": null, "stroke-width": null, "stroke-opacity": null, "type": "kndrgrdn" }, "geometry": { "type": "Point", "coordinates": [ 30.220828, 59.946016 ] } },
{ "type": "Feature", "properties": { "description": "Детский сад, ясли; </br>\nул. Вадима Шефнера, 12, корп. 3, Санкт-Петербург", "fill": null, "fill-opacity": null, "iconCaption": null, "marker-color": "#ff931e", "stroke": null, "stroke-width": null, "stroke-opacity": null, "type": "kndrgrdn" }, "geometry": { "type": "Point", "coordinates": [ 30.20466, 59.938959 ] } },
{ "type": "Feature", "properties": { "description": "Детский сад, ясли; </br>\nул. Шевченко, 27, корп. 2, Санкт-Петербург", "fill": null, "fill-opacity": null, "iconCaption": null, "marker-color": "#ff931e", "stroke": null, "stroke-width": null, "stroke-opacity": null, "type": "kndrgrdn" }, "geometry": { "type": "Point", "coordinates": [ 30.243954, 59.937773 ] } },
{ "type": "Feature", "properties": { "description": "Детский сад, ясли; </br>\nМалый просп. Васильевского острова, 15В, Санкт-Петербург", "fill": null, "fill-opacity": null, "iconCaption": null, "marker-color": "#ff931e", "stroke": null, "stroke-width": null, "stroke-opacity": null, "type": "kndrgrdn" }, "geometry": { "type": "Point", "coordinates": [ 30.274607, 59.94773 ] } },
{ "type": "Feature", "properties": { "description": "Детский сад, ясли; </br>\n20-я линия Васильевского острова, 19А, Санкт-Петербург", "fill": null, "fill-opacity": null, "iconCaption": null, "marker-color": "#ff931e", "stroke": null, "stroke-width": null, "stroke-opacity": null, "type": "kndrgrdn" }, "geometry": { "type": "Point", "coordinates": [ 30.264199, 59.935851 ] } }
]
}
